IRIDIUM 113             
1 42803U 17039A   26168.44966659  .00000017  00000+0 -98359-6 0  9997
2 42803  86.3966 322.0691 0002173  89.3401 270.8044 14.34217656471228
NORSAT 2                
1 42828U 17042D   26168.42215587  .00008543  00000+0  37730-3 0  9997
2 42828  97.4036 341.8583 0010464  56.4823 303.7411 15.21930889487778
TECHNOSAT               
1 42829U 17042E   26168.44873473  .00003130  00000+0  22414-3 0  9994
2 42829  97.4288 326.0959 0018968  93.3985 266.9412 15.04963189486743
FLYING LAPTOP           
1 42831U 17042G   26168.51881318  .00003051  00000+0  24168-3 0  9992
2 42831  97.4690 324.0383 0019628 120.6225 239.6938 15.01148007486502
WNISAT 1R               
1 42835U 17042L   26168.42506721  .00001791  00000+0  14184-3 0  9994
2 42835  97.4837 324.5385 0011202 146.5087 213.6848 15.01763609486546
LEMUR-2-GREENBERG       
1 42837U 17042N   26168.47908919  .00012423  00000+0  41240-3 0  9993
2 42837  97.3816 349.1017 0008508  13.0067 347.1392 15.31334775488438
LEMUR-2-FURIAUS         
1 42840U 17042R   26168.47308843  .00013294  00000+0  45598-3 0  9994
2 42840  97.3768 347.0502 0008176  68.3707 291.8403 15.30258907488258
CORVUS BC2              
1 42846U 17042X   26168.46057889  .00003323  00000+0  22972-3 0  9993
2 42846  97.4067 329.7991 0014358 109.6368 250.6411 15.06299036487103
CORVUS BC1              
1 42847U 17042Y   26168.18946727  .00002952  00000+0  20369-3 0  9996
2 42847  97.4101 330.3528 0013369  89.2035 271.0724 15.06467097487098
VRSS-2                  
1 42954U 17060A   26168.52488005  .00000942  00000+0  12713-3 0  9994
2 42954  97.6507 206.2366 0018645  97.8646 262.4684 14.81195209468504
MOHAMMED VI-A           
1 43005U 17070A   26168.48188374  .00000326  00000+0  53316-4 0  9995
2 43005  97.9563 240.8089 0001370  71.9685 288.1674 14.77068753464021
FENGYUN 3D              
1 43010U 17072A   26168.49973425 -.00000049  00000+0 -14822-5 0  9997
2 43010  99.0123 142.9279 0002574  61.8292 298.3143 14.19738746445030
NOAA 20 (JPSS-1)        
1 43013U 17073A   26168.49473894  .00000044  00000+0  41946-4 0  9995
2 43013  98.7771 107.9546 0000295  98.8637 261.2573 14.19511759444518
MAKERSAT 0              
1 43016U 17073D   26167.91868252  .00014378  00000+0  39184-3 0  9995
2 43016  97.4619  50.4356 0105097 273.9558  84.9674 15.32091803466428
RADFXSAT (FOX-1B)       
1 43017U 17073E   26168.14183978  .00005702  00000+0  25063-3 0  9999
2 43017  97.4699  35.3574 0149573 329.4160  29.8412 15.12717347465382
JILIN-1 04              
1 43022U 17074A   26168.54034214  .00010251  00000+0  23890-3 0  9999
2 43022  97.4864 278.1618 0004216 177.0767 183.0505 15.42448425474323
JILIN-1 05              
1 43023U 17074B   26168.51260417  .00006873  00000+0  21217-3 0  9999
2 43023  97.4870 274.6708 0004398 212.5625 147.5347 15.33880709474055
JILIN-1 06              
1 43024U 17074C   26168.48422563  .00004944  00000+0  15419-3 0  9992
2 43024  97.4796 271.6514 0005719 229.3654 130.7092 15.33695772473886
IRIDIUM 116             
1 43072U 17083C   26168.49406381  .00000012  00000+0 -28276-5 0  9996
2 43072  86.3959 321.8731 0001878  99.3926 260.7482 14.34217678444212
IRIDIUM 130             
1 43073U 17083D   26168.46234867  .00000117  00000+0  34855-4 0  9996
2 43073  86.3971 322.1614 0001942  92.3562 267.7857 14.34218795444159
LKW-2                   
1 43080U 17084A   26168.48741169  .00006640  00000+0  25817-3 0  9999
2 43080  97.1187 208.2693 0001128 170.3844 189.7417 15.26346012471738
SUPERVIEW-1 03          
1 43099U 18002A   26168.49082097  .00015145  00000+0  37591-3 0  9991
2 43099  97.3135 253.3275 0047184 178.4651 181.6748 15.39265746468414
CARTOSAT-2F             
1 43111U 18004A   26168.53778346  .00004050  00000+0  19559-3 0  9999
2 43111  97.4787 228.1694 0000668 198.0274 162.0936 15.19218911467380
LKW-3                   
1 43146U 18006A   26168.51009723  .00007503  00000+0  22171-3 0  9993
2 43146  97.6611 329.0960 0002111 320.4413  39.6675 15.35253308468763
ASNARO-2                
1 43152U 18007A   26168.51470021  .00007150  00000+0  31245-3 0  9994
2 43152  97.3968 175.4369 0001944  91.3908 268.7551 15.22398379467462
JILIN-1 07              
1 43159U 18008E   26168.48417095  .00007125  00000+0  21366-3 0  9995
2 43159  97.1765 188.4048 0009876  64.5026 295.7238 15.34726732465040
JILIN-1 08              
1 43160U 18008F   26168.48459794  .00004575  00000+0  14257-3 0  9996
2 43160  97.1799 187.7214 0008010  79.4524 280.7621 15.33715157464994
S-NET D                 
1 43186U 18014G   26168.52785575  .00003910  00000+0  20302-3 0  9995
2 43186  97.5361  73.3166 0008912  29.5505 330.6230 15.16676161458810
S-NET B                 
1 43187U 18014H   26168.27540892  .00004191  00000+0  21753-3 0  9992
2 43187  97.5368  73.0524 0009407  25.1110 335.0578 15.16643884458772
