OBJECT_NAME,OBJECT_ID,EPOCH,MEAN_MOTION,ECCENTRICITY,INCLINATION,RA_OF_ASC_NODE,ARG_OF_PERICENTER,MEAN_ANOMALY,EPHEMERIS_TYPE,CLASSIFICATION_TYPE,NORAD_CAT_ID,ELEMENT_SET_NO,REV_AT_EPOCH,BSTAR,MEAN_MOTION_DOT,MEAN_MOTION_DDOT
IRIDIUM 113,2017-039A,2026-06-17T10:47:31.193376,14.34217656,.0002173,86.3966,322.0691,89.3401,270.8044,0,U,42803,999,47122,-.98359E-6,.17E-6,0
NORSAT 2,2017-042D,2026-06-17T10:07:54.267168,15.21930889,.0010464,97.4036,341.8583,56.4823,303.7411,0,U,42828,999,48777,.3773E-3,.8543E-4,0
TECHNOSAT,2017-042E,2026-06-17T10:46:10.680672,15.04963189,.0018968,97.4288,326.0959,93.3985,266.9412,0,U,42829,999,48674,.22414E-3,.313E-4,0
FLYING LAPTOP,2017-042G,2026-06-17T12:27:05.458752,15.01148007,.0019628,97.4690,324.0383,120.6225,239.6938,0,U,42831,999,48650,.24168E-3,.3051E-4,0
WNISAT 1R,2017-042L,2026-06-17T10:12:05.806944,15.01763609,.0011202,97.4837,324.5385,146.5087,213.6848,0,U,42835,999,48654,.14184E-3,.1791E-4,0
LEMUR-2-GREENBERG,2017-042N,2026-06-17T11:29:53.306016,15.31334775,.0008508,97.3816,349.1017,13.0067,347.1392,0,U,42837,999,48843,.4124E-3,.12423E-3,0
LEMUR-2-FURIAUS,2017-042R,2026-06-17T11:21:14.840352,15.30258907,.0008176,97.3768,347.0502,68.3707,291.8403,0,U,42840,999,48825,.45598E-3,.13294E-3,0
CORVUS BC2,2017-042X,2026-06-17T11:03:14.016096,15.06299036,.0014358,97.4067,329.7991,109.6368,250.6411,0,U,42846,999,48710,.22972E-3,.3323E-4,0
CORVUS BC1,2017-042Y,2026-06-17T04:32:49.972128,15.06467097,.0013369,97.4101,330.3528,89.2035,271.0724,0,U,42847,999,48709,.20369E-3,.2952E-4,0
VRSS-2,2017-060A,2026-06-17T12:35:49.636320,14.81195209,.0018645,97.6507,206.2366,97.8646,262.4684,0,U,42954,999,46850,.12713E-3,.942E-5,0
MOHAMMED VI-A,2017-070A,2026-06-17T11:33:54.755136,14.77068753,.000137,97.9563,240.8089,71.9685,288.1674,0,U,43005,999,46402,.53316E-4,.326E-5,0
FENGYUN 3D,2017-072A,2026-06-17T11:59:37.039200,14.19738746,.0002574,99.0123,142.9279,61.8292,298.3143,0,U,43010,999,44503,-.14822E-5,-.49E-6,0
NOAA 20 (JPSS-1),2017-073A,2026-06-17T11:52:25.444416,14.19511759,.0000295,98.7771,107.9546,98.8637,261.2573,0,U,43013,999,44451,.41946E-4,.44E-6,0
MAKERSAT 0,2017-073D,2026-06-16T22:02:54.169728,15.32091803,.0105097,97.4619,50.4356,273.9558,84.9674,0,U,43016,999,46642,.39184E-3,.14378E-3,0
RADFXSAT (FOX-1B),2017-073E,2026-06-17T03:24:14.956992,15.12717347,.0149573,97.4699,35.3574,329.4160,29.8412,0,U,43017,999,46538,.25063E-3,.5702E-4,0
JILIN-1 04,2017-074A,2026-06-17T12:58:05.560896,15.42448425,.0004216,97.4864,278.1618,177.0767,183.0505,0,U,43022,999,47432,.2389E-3,.10251E-3,0
JILIN-1 05,2017-074B,2026-06-17T12:18:09.000288,15.33880709,.0004398,97.4870,274.6708,212.5625,147.5347,0,U,43023,999,47405,.21217E-3,.6873E-4,0
JILIN-1 06,2017-074C,2026-06-17T11:37:17.094432,15.33695772,.0005719,97.4796,271.6514,229.3654,130.7092,0,U,43024,999,47388,.15419E-3,.4944E-4,0
IRIDIUM 116,2017-083C,2026-06-17T11:51:27.113184,14.34217678,.0001878,86.3959,321.8731,99.3926,260.7482,0,U,43072,999,44421,-.28276E-5,.12E-6,0
IRIDIUM 130,2017-083D,2026-06-17T11:05:46.925088,14.34218795,.0001942,86.3971,322.1614,92.3562,267.7857,0,U,43073,999,44415,.34855E-4,.117E-5,0
LKW-2,2017-084A,2026-06-17T11:41:52.370016,15.26346012,.0001128,97.1187,208.2693,170.3844,189.7417,0,U,43080,999,47173,.25817E-3,.664E-4,0
SUPERVIEW-1 03,2018-002A,2026-06-17T11:46:46.931808,15.39265746,.0047184,97.3135,253.3275,178.4651,181.6748,0,U,43099,999,46841,.37591E-3,.15145E-3,0
CARTOSAT-2F,2018-004A,2026-06-17T12:54:24.490944,15.19218911,.0000668,97.4787,228.1694,198.0274,162.0936,0,U,43111,999,46738,.19559E-3,.405E-4,0
LKW-3,2018-006A,2026-06-17T12:14:32.400672,15.35253308,.0002111,97.6611,329.0960,320.4413,39.6675,0,U,43146,999,46876,.22171E-3,.7503E-4,0
ASNARO-2,2018-007A,2026-06-17T12:21:10.098144,15.22398379,.0001944,97.3968,175.4369,91.3908,268.7551,0,U,43152,999,46746,.31245E-3,.715E-4,0
JILIN-1 07,2018-008E,2026-06-17T11:37:12.370080,15.34726732,.0009876,97.1765,188.4048,64.5026,295.7238,0,U,43159,999,46504,.21366E-3,.7125E-4,0
JILIN-1 08,2018-008F,2026-06-17T11:37:49.262016,15.33715157,.000801,97.1799,187.7214,79.4524,280.7621,0,U,43160,999,46499,.14257E-3,.4575E-4,0
S-NET D,2018-014G,2026-06-17T12:40:06.736800,15.16676161,.0008912,97.5361,73.3166,29.5505,330.6230,0,U,43186,999,45881,.20302E-3,.391E-4,0
S-NET B,2018-014H,2026-06-17T06:36:35.330688,15.16643884,.0009407,97.5368,73.0524,25.1110,335.0578,0,U,43187,999,45877,.21753E-3,.4191E-4,0
